CCSDS_OMM_VERS = 2.0
CREATION_DATE  = 
ORIGINATOR     = 

OBJECT_NAME    = SL-14 R/B
OBJECT_ID      = 1991-042B
CENTER_NAME    = EARTH
REF_FRAME      = TEME
TIME_SYSTEM    = UTC
MEAN_ELEMENT_THEORY = SGP/SGP4

EPOCH          = 2025-12-29T19:11:14.101728
MEAN_MOTION    = 14.81756188
ECCENTRICITY   = .0018525
INCLINATION    = 82.4936
RA_OF_ASC_NODE = 285.7272
ARG_OF_PERICENTER = 108.9512
MEAN_ANOMALY   = 251.3712

EPHEMERIS_TYPE = 0
CLASSIFICATION_TYPE = U
NORAD_CAT_ID   = 21423
ELEMENT_SET_NO = 999
REV_AT_EPOCH   = 84272
BSTAR          = .8319E-4
MEAN_MOTION_DOT = .681E-5
MEAN_MOTION_DDOT = 0

CCSDS_OMM_VERS = 2.0
CREATION_DATE  = 
ORIGINATOR     = 

OBJECT_NAME    = ERS-1
OBJECT_ID      = 1991-050A
CENTER_NAME    = EARTH
REF_FRAME      = TEME
TIME_SYSTEM    = UTC
MEAN_ELEMENT_THEORY = SGP/SGP4

EPOCH          = 2025-12-29T18:25:52.632192
MEAN_MOTION    = 14.39379389
ECCENTRICITY   = .0032778
INCLINATION    = 98.7900
RA_OF_ASC_NODE = 15.2483
ARG_OF_PERICENTER = 51.0238
MEAN_ANOMALY   = 309.3861

EPHEMERIS_TYPE = 0
CLASSIFICATION_TYPE = U
NORAD_CAT_ID   = 21574
ELEMENT_SET_NO = 999
REV_AT_EPOCH   = 80567
BSTAR          = .18561E-3
MEAN_MOTION_DOT = .534E-5
MEAN_MOTION_DDOT = 0

CCSDS_OMM_VERS = 2.0
CREATION_DATE  = 
ORIGINATOR     = 

OBJECT_NAME    = ARIANE 40 R/B
OBJECT_ID      = 1991-050F
CENTER_NAME    = EARTH
REF_FRAME      = TEME
TIME_SYSTEM    = UTC
MEAN_ELEMENT_THEORY = SGP/SGP4

EPOCH          = 2025-12-29T16:59:03.740352
MEAN_MOTION    = 14.42828168
ECCENTRICITY   = .0001957
INCLINATION    = 98.2143
RA_OF_ASC_NODE = 53.5240
ARG_OF_PERICENTER = 293.0911
MEAN_ANOMALY   = 67.0073

EPHEMERIS_TYPE = 0
CLASSIFICATION_TYPE = U
NORAD_CAT_ID   = 21610
ELEMENT_SET_NO = 999
REV_AT_EPOCH   = 80890
BSTAR          = .16506E-3
MEAN_MOTION_DOT = .509E-5
MEAN_MOTION_DDOT = 0

CCSDS_OMM_VERS = 2.0
CREATION_DATE  = 
ORIGINATOR     = 

OBJECT_NAME    = INTERCOSMOS 25
OBJECT_ID      = 1991-086A
CENTER_NAME    = EARTH
REF_FRAME      = TEME
TIME_SYSTEM    = UTC
MEAN_ELEMENT_THEORY = SGP/SGP4

EPOCH          = 2025-12-29T17:24:45.074016
MEAN_MOTION    = 12.11797528
ECCENTRICITY   = .1486186
INCLINATION    = 82.6080
RA_OF_ASC_NODE = 352.3013
ARG_OF_PERICENTER = 267.7619
MEAN_ANOMALY   = 75.3178

EPHEMERIS_TYPE = 0
CLASSIFICATION_TYPE = U
NORAD_CAT_ID   = 21819
ELEMENT_SET_NO = 999
REV_AT_EPOCH   = 48821
BSTAR          = .45814E-3
MEAN_MOTION_DOT = .23E-4
MEAN_MOTION_DDOT = 0

CCSDS_OMM_VERS = 2.0
CREATION_DATE  = 
ORIGINATOR     = 

OBJECT_NAME    = SL-8 R/B
OBJECT_ID      = 1992-008B
CENTER_NAME    = EARTH
REF_FRAME      = TEME
TIME_SYSTEM    = UTC
MEAN_ELEMENT_THEORY = SGP/SGP4

EPOCH          = 2025-12-29T20:11:26.819232
MEAN_MOTION    = 13.75963047
ECCENTRICITY   = .0034104
INCLINATION    = 82.9277
RA_OF_ASC_NODE = 319.7261
ARG_OF_PERICENTER = 332.0520
MEAN_ANOMALY   = 92.1306

EPHEMERIS_TYPE = 0
CLASSIFICATION_TYPE = U
NORAD_CAT_ID   = 21876
ELEMENT_SET_NO = 999
REV_AT_EPOCH   = 69981
BSTAR          = .14787E-3
MEAN_MOTION_DOT = .159E-5
MEAN_MOTION_DDOT = 0

CCSDS_OMM_VERS = 2.0
CREATION_DATE  = 
ORIGINATOR     = 

OBJECT_NAME    = SL-8 R/B
OBJECT_ID      = 1992-020B
CENTER_NAME    = EARTH
REF_FRAME      = TEME
TIME_SYSTEM    = UTC
MEAN_ELEMENT_THEORY = SGP/SGP4

EPOCH          = 2025-12-29T20:27:03.086784
MEAN_MOTION    = 13.75532131
ECCENTRICITY   = .0029909
INCLINATION    = 82.9289
RA_OF_ASC_NODE = 205.6099
ARG_OF_PERICENTER = 131.1316
MEAN_ANOMALY   = 240.0172

EPHEMERIS_TYPE = 0
CLASSIFICATION_TYPE = U
NORAD_CAT_ID   = 21938
ELEMENT_SET_NO = 999
REV_AT_EPOCH   = 69153
BSTAR          = .20612E-3
MEAN_MOTION_DOT = .214E-5
MEAN_MOTION_DDOT = 0

CCSDS_OMM_VERS = 2.0
CREATION_DATE  = 
ORIGINATOR     = 

OBJECT_NAME    = USA 81
OBJECT_ID      = 1992-023A
CENTER_NAME    = EARTH
REF_FRAME      = TEME
TIME_SYSTEM    = UTC
MEAN_ELEMENT_THEORY = SGP/SGP4

EPOCH          = 2025-12-29T12:30:05.054112
MEAN_MOTION    = 14.32333817
ECCENTRICITY   = .00011044
INCLINATION    = 85.0083
RA_OF_ASC_NODE = 171.8978
ARG_OF_PERICENTER = 98.4091
MEAN_ANOMALY   = 261.7227

EPHEMERIS_TYPE = 0
CLASSIFICATION_TYPE = U
NORAD_CAT_ID   = 21949
ELEMENT_SET_NO = 999
REV_AT_EPOCH   = 8474
BSTAR          = .10790797E-3
MEAN_MOTION_DOT = .311E-5
MEAN_MOTION_DDOT = 0

CCSDS_OMM_VERS = 2.0
CREATION_DATE  = 
ORIGINATOR     = 

OBJECT_NAME    = COSMOS 2219
OBJECT_ID      = 1992-076A
CENTER_NAME    = EARTH
REF_FRAME      = TEME
TIME_SYSTEM    = UTC
MEAN_ELEMENT_THEORY = SGP/SGP4

EPOCH          = 2025-12-29T18:32:48.026976
MEAN_MOTION    = 14.14072150
ECCENTRICITY   = .0019727
INCLINATION    = 71.0592
RA_OF_ASC_NODE = 164.2262
ARG_OF_PERICENTER = 303.3794
MEAN_ANOMALY   = 56.5440

EPHEMERIS_TYPE = 0
CLASSIFICATION_TYPE = U
NORAD_CAT_ID   = 22219
ELEMENT_SET_NO = 999
REV_AT_EPOCH   = 70849
BSTAR          = .25046E-3
MEAN_MOTION_DOT = .43E-5
MEAN_MOTION_DDOT = 0

CCSDS_OMM_VERS = 2.0
CREATION_DATE  = 
ORIGINATOR     = 

OBJECT_NAME    = SL-16 R/B
OBJECT_ID      = 1992-076B
CENTER_NAME    = EARTH
REF_FRAME      = TEME
TIME_SYSTEM    = UTC
MEAN_ELEMENT_THEORY = SGP/SGP4

EPOCH          = 2025-12-29T09:20:04.142112
MEAN_MOTION    = 14.16845876
ECCENTRICITY   = .00139881
INCLINATION    = 71.0011
RA_OF_ASC_NODE = 336.4597
ARG_OF_PERICENTER = 211.8498
MEAN_ANOMALY   = 260.4346

EPHEMERIS_TYPE = 0
CLASSIFICATION_TYPE = U
NORAD_CAT_ID   = 22220
ELEMENT_SET_NO = 999
REV_AT_EPOCH   = 71187
BSTAR          = -.30588584E-4
MEAN_MOTION_DOT = -.109E-5
MEAN_MOTION_DDOT = 0

CCSDS_OMM_VERS = 2.0
CREATION_DATE  = 
ORIGINATOR     = 

OBJECT_NAME    = COSMOS 2221
OBJECT_ID      = 1992-080A
CENTER_NAME    = EARTH
REF_FRAME      = TEME
TIME_SYSTEM    = UTC
MEAN_ELEMENT_THEORY = SGP/SGP4

EPOCH          = 2025-12-29T11:23:54.526560
MEAN_MOTION    = 14.95833966
ECCENTRICITY   = .00162515
INCLINATION    = 82.5042
RA_OF_ASC_NODE = 346.3057
ARG_OF_PERICENTER = 70.8350
MEAN_ANOMALY   = 289.4629

EPHEMERIS_TYPE = 0
CLASSIFICATION_TYPE = U
NORAD_CAT_ID   = 22236
ELEMENT_SET_NO = 999
REV_AT_EPOCH   = 77029
BSTAR          = .27915194E-3
MEAN_MOTION_DOT = .315E-4
MEAN_MOTION_DDOT = 0

CCSDS_OMM_VERS = 2.0
CREATION_DATE  = 
ORIGINATOR     = 

OBJECT_NAME    = SL-16 R/B
OBJECT_ID      = 1992-093B
CENTER_NAME    = EARTH
REF_FRAME      = TEME
TIME_SYSTEM    = UTC
MEAN_ELEMENT_THEORY = SGP/SGP4

EPOCH          = 2025-12-29T20:18:52.143840
MEAN_MOTION    = 14.15434931
ECCENTRICITY   = .0002756
INCLINATION    = 71.0212
RA_OF_ASC_NODE = 150.8858
ARG_OF_PERICENTER = 20.6851
MEAN_ANOMALY   = 339.4383

EPHEMERIS_TYPE = 0
CLASSIFICATION_TYPE = U
NORAD_CAT_ID   = 22285
ELEMENT_SET_NO = 999
REV_AT_EPOCH   = 70327
BSTAR          = -.56179E-4
MEAN_MOTION_DOT = -.157E-5
MEAN_MOTION_DDOT = 0

CCSDS_OMM_VERS = 2.0
CREATION_DATE  = 
ORIGINATOR     = 

OBJECT_NAME    = COSMOS 2228
OBJECT_ID      = 1992-094A
CENTER_NAME    = EARTH
REF_FRAME      = TEME
TIME_SYSTEM    = UTC
MEAN_ELEMENT_THEORY = SGP/SGP4

EPOCH          = 2025-12-29T19:18:32.006304
MEAN_MOTION    = 14.96817387
ECCENTRICITY   = .0018067
INCLINATION    = 82.5187
RA_OF_ASC_NODE = 304.2064
ARG_OF_PERICENTER = 171.6060
MEAN_ANOMALY   = 188.5469

EPHEMERIS_TYPE = 0
CLASSIFICATION_TYPE = U
NORAD_CAT_ID   = 22286
ELEMENT_SET_NO = 999
REV_AT_EPOCH   = 76560
BSTAR          = .31408E-3
MEAN_MOTION_DOT = .3633E-4
MEAN_MOTION_DDOT = 0

