SL-14 R/B               
1 21423U 91042B   25363.79946877  .00000681  00000+0  83190-4 0  9993
2 21423  82.4936 285.7272 0018525 108.9512 251.3712 14.81756188842729
ERS-1                   
1 21574U 91050A   25363.76797028  .00000534  00000+0  18561-3 0  9994
2 21574  98.7900  15.2483 0032778  51.0238 309.3861 14.39379389805675
ARIANE 40 R/B           
1 21610U 91050F   25363.70768218  .00000509  00000+0  16506-3 0  9997
2 21610  98.2143  53.5240 0001957 293.0911  67.0073 14.42828168808907
INTERCOSMOS 25          
1 21819U 91086A   25363.72552169  .00002300  00000+0  45814-3 0  9990
2 21819  82.6080 352.3013 1486186 267.7619  75.3178 12.11797528488213
SL-8 R/B                
1 21876U 92008B   25363.84128263  .00000159  00000+0  14787-3 0  9990
2 21876  82.9277 319.7261 0034104 332.0520  92.1306 13.75963047699816
SL-8 R/B                
1 21938U 92020B   25363.85211906  .00000214  00000+0  20612-3 0  9997
2 21938  82.9289 205.6099 0029909 131.1316 240.0172 13.75532131691530
USA 81                  
1 21949U 92023A   25363.52089183  .00000311  00000+0  10791-3 0  9991
2 21949  85.0083 171.8978 0001104  98.4091 261.7227 14.32333817 84744
COSMOS 2219             
1 22219U 92076A   25363.77277809  .00000430  00000+0  25046-3 0  9992
2 22219  71.0592 164.2262 0019727 303.3794  56.5440 14.14072150708497
SL-16 R/B               
1 22220U 92076B   25363.38893683 -.00000109  00000+0 -30589-4 0  9999
2 22220  71.0011 336.4597 0013988 211.8498 260.4346 14.16845876711878
COSMOS 2221             
1 22236U 92080A   25363.47493665  .00003150  00000+0  27915-3 0  9992
2 22236  82.5042 346.3057 0016251  70.8350 289.4629 14.95833966770293
SL-16 R/B               
1 22285U 92093B   25363.84643685 -.00000157  00000+0 -56179-4 0  9991
2 22285  71.0212 150.8858 0002756  20.6851 339.4383 14.15434931703278
COSMOS 2228             
1 22286U 92094A   25363.80453711  .00003633  00000+0  31408-3 0  9995
2 22286  82.5187 304.2064 0018067 171.6060 188.5469 14.96817387765604
